OBJECT_NAME,OBJECT_ID,EPOCH,MEAN_MOTION,ECCENTRICITY,INCLINATION,RA_OF_ASC_NODE,ARG_OF_PERICENTER,MEAN_ANOMALY,EPHEMERIS_TYPE,CLASSIFICATION_TYPE,NORAD_CAT_ID,ELEMENT_SET_NO,REV_AT_EPOCH,BSTAR,MEAN_MOTION_DOT,MEAN_MOTION_DDOT
LINGQIAO VIDEO A,2015-057B,2026-07-14T14:06:45.214848,14.77424279,.00165772,97.6626,189.0400,174.9836,185.1545,0,U,40959,999,57945,-.16992063E-4,-.17E-5,0
LINGQIAO VIDEO B,2015-057C,2026-07-14T15:07:51.149568,14.77532772,.00167713,97.6592,190.2367,174.8748,185.2638,0,U,40960,999,57950,.90465104E-4,.598E-5,0
JILIN-1,2015-057D,2026-07-14T15:09:35.767008,14.78200883,.00171712,97.6519,193.6375,168.6998,191.4603,0,U,40961,999,57966,.58953308E-4,.38E-5,0
AEROCUBE 5C,2015-058B,2026-07-14T07:49:42.510144,14.91572903,.01322819,64.7652,178.1530,52.7587,308.5506,0,U,40965,999,36970,.1636215E-3,.1764E-4,0
AEROCUBE 7,2015-058C,2026-07-14T12:17:09.870720,14.95909907,.01220119,64.7610,159.2159,51.0141,310.1765,0,U,40966,999,37004,.23038978E-3,.2819E-4,0
FOX-1A (AO-85),2015-058D,2026-07-14T10:47:31.033536,14.91085582,.01323024,64.7725,194.2515,46.0955,315.0989,0,U,40967,999,11763,.15724465E-3,.1665E-4,0
SINOD-D 1,2015-058E,2026-07-14T08:28:14.313216,14.96082878,.01209938,64.7732,173.8274,42.4784,318.5615,0,U,40968,999,12072,.2266524E-3,.2777E-4,0
SNAP-3 ALICE,2015-058G,2026-07-14T14:40:50.458368,15.67107790,.00245412,64.7491,8.6281,348.6868,11.3726,0,U,40970,999,12117,.84346083E-3,.92922E-3,0
LMRST-SAT,2015-058H,2026-07-14T09:53:14.571744,14.90700627,.01338389,64.7731,190.7587,48.1094,313.1343,0,U,40971,999,11761,.15301478E-3,.1604E-4,0
SNAP-3 EDDIE,2015-058J,2026-07-14T13:54:53.079264,15.68485561,.00254219,64.7401,359.2544,351.1847,8.8853,0,U,40972,999,12331,.89191524E-3,.104262E-2,0
PROPCUBE 3,2015-058K,2026-07-14T07:31:24.360096,14.94411538,.01257105,64.7668,167.7721,49.3408,311.8552,0,U,40973,999,11885,.19952954E-3,.2337E-4,0
BISONSAT,2015-058L,2026-07-14T03:15:38.315232,15.16915005,.00819801,64.7585,86.4661,36.3271,324.3379,0,U,40974,999,11970,.42413995E-3,.8955E-4,0
SNAP-3 JIMI,2015-058M,2026-07-14T05:07:33.956544,15.02600450,.01077872,64.7645,134.2428,44.6929,316.2812,0,U,40975,999,11828,.30025585E-3,.436E-4,0
PROPCUBE 1 (FLORA),2015-058N,2026-07-14T09:24:21.882816,14.89325455,.01324163,64.7718,210.9135,50.3966,310.8748,0,U,40976,999,12031,.1286528E-3,.1263E-4,0
SINOD-D 3,2015-058P,2026-07-14T08:23:16.531296,14.94169664,.01209767,64.7701,190.9882,47.4631,313.6620,0,U,40977,999,11881,.19838367E-3,.2279E-4,0
APSTAR-9,2015-059A,2026-07-14T15:48:09.712800,1.00271946,.00030762,0.0232,45.1261,142.8060,123.6382,0,U,40982,999,3939,0,-.274E-5,0
TURKSAT 4B,2015-060A,2026-07-14T10:14:00.313728,1.00272243,.0002355,0.0142,56.8159,63.4410,15.4936,0,U,40984,999,3937,0,.108E-5,0
NAVSTAR 75 (USA 265),2015-062A,2026-07-13T04:52:25.128768,2.00566902,.01127742,56.9770,29.8096,230.8892,128.1524,0,U,41019,999,7835,0,-.56E-6,0
ZHONGXING-2C,2015-063A,2026-07-14T15:02:06.717696,1.00287572,.0007387,0.3424,88.5870,98.3581,74.5203,0,U,41021,999,3925,0,-.334E-5,0
YAOGAN-28,2015-064A,2026-07-14T15:19:00.765120,15.27755686,.00120673,97.3107,333.3512,94.8895,265.3722,0,U,41026,999,59487,.15090519E-3,.4026E-4,0
GSAT-15,2015-065A,2026-07-14T08:43:42.352896,1.00267881,.00035804,0.0277,63.4769,29.8725,63.3157,0,U,41028,999,3907,0,0,0
BADR-7 (ARABSAT-6B),2015-065B,2026-07-14T13:32:28.646880,1.00275170,.00051734,0.0171,250.6450,312.8032,318.1238,0,U,41029,999,3904,0,0,0
COSMOS 2510,2015-066A,2026-07-11T07:57:46.329408,2.00831344,.71992723,63.4773,342.8105,274.7101,13.8681,0,U,41032,999,7795,0,-.1608E-4,0
LAOSAT 1,2015-067A,2026-07-14T12:22:38.622720,1.00265433,.00021377,0.0193,272.7451,151.4473,182.3574,0,U,41034,999,3913,0,0,0
TELSTAR 12V,2015-068A,2026-07-14T09:55:24.596832,1.00269504,.00020924,0.0280,56.8709,53.9293,315.3427,0,U,41036,999,3889,0,0,0
YAOGAN-29,2015-069A,2026-07-14T15:17:26.949408,14.83106673,.00007573,98.0020,224.3117,13.8036,346.3198,0,U,41038,999,57469,.66874753E-4,.491E-5,0
ELEKTRO-L 2,2015-074A,2026-07-14T09:55:32.085120,1.00272099,.00010268,6.7595,70.1832,212.6794,143.7919,0,U,41105,999,3877,0,-.129E-5,0
COSMOS 2513,2015-075A,2026-07-14T15:30:32.239008,1.00270873,.00025134,0.0640,104.5235,342.6778,158.1675,0,U,41121,999,3882,0,-.146E-5,0
VELOX-CI,2015-077A,2026-07-14T10:43:14.466144,15.50895990,.00046365,14.9810,233.1580,265.3369,94.6428,0,U,41166,999,58696,.21175534E-3,.13813E-3,0
KENT RIDGE 1,2015-077B,2026-07-14T06:33:17.975808,15.23280956,.00082992,14.9803,64.5207,262.2466,97.6913,0,U,41167,999,58523,.68866126E-4,.2444E-4,0
DAMPE,2015-078A,2026-07-14T14:56:08.915424,15.30851912,.00116428,97.4558,201.2254,347.6642,12.4312,0,U,41173,999,58874,.22188619E-4,.584E-5,0
